#dP2023  6 29 12  0  0.00000000      96 __u+U ITR00 EXT  IAC
## 2268 388800.00000000   900.00000000 60124 0.5000000000000
+  116   C06C07C09C10C11C12C13C14C16C19C20C21C22C23C24C25C26
+        C27C28C29C30C32C33C34C35C36C37C39C40C41C42C43C44C45
+        C46E02E03E04E05E07E08E09E10E11E12E13E14E15E18E19E21
+        E24E25E26E27E30E33E34E36G01G02G03G04G05G06G07G08G09
+        G10G11G12G13G14G15G16G17G18G19G20G21G22G23G24G25G26
+        G27G28G29G30G31G32J02J03J04R01R02R03R04R05R07R08R09
+        R11R12R13R14R15R16R17R18R19R20R21R22R24R25  0  0  0
++        10 11  9 10 10  0  9  8  8  7  7  8  8  6  8  8  9
++         8  8  7 12  9  8  7  7  8  8 10  8  9  8  7  8  9
++         8  7  8  6  7  6  8  7  7  7  8  7  9  7  7  8  7
++         7  7  7  7  7  8  7  6  6  6  8  6  7  7  8  7  7
++         8  7  7  7  6  7  7  8  7  7  7  7  7  8  6  7  6
++         8  7  6  6  7  8  8  9  9  8  8  7  9  6  7  8  7
++         8  8  7  7  7  7  6  8  8  9  7  8  8  7  0  0  0
%c M  cc GPS ccc cccc cccc cccc cccc ccccc ccccc ccccc ccccc
%c cc cc ccc ccc cccc cccc cccc cccc ccccc ccccc ccccc ccccc
%f  0.0000000  0.000000000  0.00000000000  0.000000000000000
%f  0.0000000  0.000000000  0.00000000000  0.000000000000000
%i    0    0    0    0      0      0      0      0         0
%i    0    0    0    0      0      0      0      0         0
/* IAC                                ULTRA-RAPID PREDICTION
/* S/V CLOCKS ARE ALIGNED TO GNSS TIME                      
/* G:C1WC2W R:C1PC2P E:C1XC5X C:C2IC6I J:C1CC2S             
/* PCV:IGS20_2247 OL/AL:FES2004  NONE     YN ORB:CoN CLK:CoN
*  2023 06 29 14 45  0.00000000
PC06  -3784.618375  26159.197829  32933.812080   -169.269803
PC07 -16326.461031  32588.832790 -21316.831297   -246.398039
PC09   6220.760059  30542.661984  29068.329608    476.474811
PC10 -10560.976074  32416.453807 -24806.663037    -99.891898
PC11 -25891.919379 -10437.678416   -379.047783    699.811427
PC12      0.000000      0.000000      0.000000    749.278910
PC13  -1243.010372  41954.893264  -1581.960475    305.872691
PC14 -19670.354532  -1251.499380 -19765.605336    485.357606
PC16  -4288.586821  25433.048950  33654.852496     25.147393
PC19  23287.513802  -7317.950552  13520.956326   -930.896952
PC20  14098.639372   8285.585962  22617.633854    470.513003
PC21   4400.665970 -20151.209456 -18768.702016   -928.623723
PC22  19535.009449 -19516.459023  -3911.961498   -418.787825
PC23 -10535.855590  18067.387762  18486.143390   -964.593850
PC24 -12933.755665 -21109.942419  12894.419454    117.221501
PC25 -16573.561201   -707.912414  22436.533463    157.491458
PC26  -3067.083988 -27596.637231  -2972.793260   -141.647105
PC27   5684.495826  17737.170132 -20806.902982    162.298883
PC28 -13115.399888  11283.225886 -21897.454715    120.764805
PC29  26219.037678   2092.603521   9311.749769    140.569950
PC30  22335.784233  14210.598233  -8868.049343     -1.675919
PC32  -4340.419024  20251.575134  18724.815672   -543.717993
PC33 -23251.224280   7416.342823 -13551.042721   -903.676425
PC34 -23129.092521 -13614.427327   7595.816008    203.821635
PC35  13254.030386 -11523.134811  21678.519492    598.466386
PC36  16607.610299   1961.188318 -22310.800248   -356.399347
PC37   1700.297147  27559.114353   3986.822400   -788.615464
PC39 -10028.639246  22042.933004  34563.609028     -3.555958
PC40 -23685.672497  27501.375249 -21650.994634    -27.762391
PC41 -19823.382824  19383.444728   3290.289047   -911.674421
PC42 -13034.435635  -9391.307950 -22778.713251   -630.724007
PC43 -26421.380499  -2698.598339  -8551.479615     28.430281
PC44  -6074.953162 -17591.527657  20767.431011    153.212253
PC45  10166.648204 -18507.744750 -18247.723898   -116.365555
PC46  13443.851928  19966.636168 -14084.051531    -65.137461
PE02   1538.301860 -26550.330150  13008.254488     46.871669
PE03  -4435.862586 -16517.722347 -24158.499199    -31.136948
PE04  23500.274326   8240.010398  16006.821016   -155.584427
PE05  17575.912615 -15253.841776 -18281.748202     -5.052490
PE07 -29164.469866   4886.431847   1483.942787    -56.276958
PE08 -23263.926800  -8309.305208 -16314.241491   -106.610294
PE09  29169.349327  -4798.883326  -1311.037371    -67.145383
PE10  22003.000846  11643.601506  15995.675708   -544.811260
PE11  19285.564400   1310.976217  22402.191698   2355.057309
PE12  21082.429221  19314.682293   7679.317835   -598.783872
PE13 -19545.734752  -2051.301152 -22138.104196    -19.313455
PE14  -6361.252967  19903.031590 -23411.648602    267.963166
PE15 -21005.141526 -19507.945286  -7370.880448    -33.205830
PE18  -9844.251265 -15171.991709  18361.064733    238.218069
PE19   1308.218822  16835.849376  24320.965543  -2189.245884
PE21 -14076.557374  25655.383043   4464.787559   -537.816212
PE24  19254.850330  -9056.158316 -20594.905836   -181.890580
PE25  14248.263120 -25499.715973  -4783.352790   -607.532180
PE26  -6189.766830  17026.041091 -23412.714364    148.365379
PE27 -19206.058805   9838.451461  20264.474340    -86.769264
PE30 -12679.326028 -12170.440574  23813.211380   -294.967949
PE33  10048.228684  25304.376744 -11627.989686   -442.559493
PE34 -10222.559952 -25297.089869  11474.982345    -53.411104
PE36   6671.705519 -16358.691494  23741.746793    -78.508276
PG01  19168.666732  10450.254113  15024.988501    175.531675
PG02  20755.794979  13441.125145  10390.615948   -581.127801
PG03  16021.126606  -1197.029145  20987.976208   -252.448483
PG04  26414.482630    618.839162   3279.805736     81.692693
PG05  -8695.664386 -15378.630018 -19976.798712   -132.973493
PG06  -1317.095294 -20779.185206  16491.941436    582.022786
PG07  14527.925094  -5609.623312 -21095.857356    139.129227
PG08  21530.141722   7292.108604 -14129.877559   -129.726633
PG09  24737.098763  -7468.469119  -6311.500554   -124.288474
PG10 -10845.763816  24054.833273     48.367613    -43.151228
PG11 -12507.666292 -23273.718267   2955.158553   -255.154423
PG12 -15024.065794  -3306.483090  21366.121923   -394.586085
PG13 -14400.570936 -13149.786523 -18308.341712    540.528019
PG14  13491.176814 -22579.509888  -2992.242085    106.348580
PG15 -22470.988025  -5119.426583 -13888.171765     53.362253
PG16   4157.008703  18697.241270 -18506.904260   -486.366955
PG17  12943.082489 -13574.094770  19279.066675    719.778630
PG18 -12177.157317   8644.315690 -21965.285309   -326.536536
PG19   4629.489636 -14573.844578  21459.352887    337.138599
PG20  -3557.915651 -22977.247365 -12972.812821    425.377944
PG21  20635.392831  15922.992717   7644.701159    152.672613
PG22   -736.726568  15385.611888  22087.219960    505.344182
PG23 -16039.082156  17424.960087 -11855.319724     37.999477
PG24 -20997.436551 -12646.861022  10373.249236   -241.331438
PG25 -17469.147990  10435.628372  16615.997047    452.964529
PG26  -2543.633213  24878.529208  -8535.047175    237.868003
PG27  10975.274230  13179.897209 -20637.196627      6.872217
PG28    127.027969  20071.779684  17375.698481     83.589200
PG29 -25887.459801   3857.407826  -4873.480410   -604.230325
PG30   7294.013574 -15465.089906 -20143.029118   -507.791679
PG31   8986.875654  23345.696921   8081.362919   -219.118717
PG32  -9619.167086  14990.808648  19822.926457   -510.750689
PJ02 -32797.177606  25122.917732  13715.850965     -0.916011
PJ03 -22489.828844  19584.132838 -25187.561471      7.844238
PJ04 -25961.207174  33490.747226   4963.271218     96.034541
PR01 -20865.904162   4560.815360 -13955.598711     60.391692
PR02 -21200.836096  13586.778265   3906.238533    -22.645742
PR03  -8806.860828  14964.168222  18709.027871     80.587155
PR04   7887.970133   7864.694846  22977.753074    193.103226
PR05  20533.132452  -3292.893842  14799.696798    114.963966
PR07   8187.926528 -14795.485152 -19075.435111     59.068571
PR08  -8136.582330  -7787.249275 -22825.033333    -71.452617
PR09   8767.494973 -15704.384759 -18028.287094    128.460860
PR11  -5988.953560 -21269.939014  12740.775981    -91.756805
PR12 -10904.578577  -3486.908219  22825.160763     28.594430
PR13  -9264.640085  13867.923519  19292.605390    -36.572529
PR14  -1641.032201  25277.148431   3126.223999     24.870216
PR15   6347.846253  20536.200965 -13717.543263     88.214993
PR16  10742.937502   3791.412875 -22811.607548     16.144068
PR17   3489.613362  13508.030645 -21342.824168     -4.630532
PR18  17394.790242  15968.731972  -9700.620502     89.059560
PR19  22008.342115  11635.032268   5538.619776   -238.036732
PR20  13759.373881  -2252.445412  21370.348481    -95.633931
PR21  -4784.479651 -13989.775259  20786.915559    -18.939252
PR22 -17302.856800 -16561.878410   8780.163886     86.865145
PR24 -13402.895312   3551.226318 -21405.441947    -14.248817
PR25  -2672.067323 -13880.209783  21238.824907     57.754529
EOF
